line1,line2,validFromUtcTime
1 00000U 00000E   26001.00000000  .00000000  00000-0  27772-4 0    01,2 00000  88.8591 105.3339 0010098 270.2463  37.2180 13.55289153    00,2026-01-01T00:00:00Z
1 00000U 00000E   26002.00000000  .00000000  00000-0  27772-4 0    02,2 00000  88.8591 105.2179 0010098 267.3366 236.2575 13.55289191    01,2026-01-02T00:00:00Z
